323P-B/SOHO,e,5.4578,323.4624,353.9646,2.889547,0.2006593,0.98610953,0.0000,12/16.2664/2025,2000,g 26.0,4.0
# From MPEC 2024-F21
323P-C/SOHO,e,5.3399,324.1987,353.2061,2.611038,0.2336061,0.98476213,0.0000,04/07.1014/2025,2000,g 27.0,4.0
# From MPEC 2021-W31
324P/LaSagra,e,21.3992,270.5691,57.4799,3.096722,0.1808634,0.15289025,244.0769,01/12.0/2025,2000,g 13.0,4.0
# From MPEC 2024-LE0
325P/Yang-Gao,e,16.8495,256.8543,344.9365,3.548029,0.1474766,0.58794422,150.9653,01/12.0/2025,2000,g 14.0,4.0
# From MPEC 2024-LE0
326P/Hill,e,2.4732,99.7593,278.3363,4.069726,0.1200484,0.32047686,45.5915,01/12.0/2025,2000,g 13.5,4.0
# From MPEC 2024-M41
327P/VanNess,e,36.2366,173.9968,185.0451,3.562876,0.1465558,0.56265386,126.4671,01/12.0/2025,2000,g 16.0,4.0
# From MPEC 2024-YC7
328P/LONEOS-Tucker,e,17.6724,341.5919,30.6764,4.191111,0.1148710,0.55301612,19.3024,01/12.0/2025,2000,g 14.5,4.0
# From MPC101101
329P/LINEAR-Catalina,e,21.7195,87.6881,343.5894,5.183066,0.0835264,0.67890503,277.6006,01/12.0/2025,2000,g 13.5,4.0
# From MPEC 2023-J29
330P/Catalina,e,15.7379,293.0825,188.8248,6.615890,0.0579191,0.55040170,177.0704,01/12.0/2025,2000,g 12.0,4.0
# From MPEC 2024-Q20
331P/Gibbs,e,9.7402,216.7462,185.4431,3.003335,0.1893644,0.04149937,294.5075,01/12.0/2025,2000,g 12.0,4.0
# From MPEC 2016-K18
332P/Ikeya-Murakami,e,9.3847,3.7549,152.2905,3.086363,0.1817747,0.48971036,225.8853,01/12.0/2025,2000,g 18.0,4.0
# From MPEC 2016-K18
332P-A/Ikeya-Murakami,e,9.3849,152.3124,3.7337,3.086350,0.1817759,0.48971702,225.8843,01/12.0/2025,2000,g  9.0,4.0
# From MPEC 2016-EI8
332P-B/Ikeya-Murakami,e,9.3805,3.8028,152.3711,3.082329,0.1821317,0.48970701,359.9699,03/17.0/2016,2000,g 19.0,4.0
# From MPEC 2016-K18
332P-C/Ikeya-Murakami,e,9.3840,152.3037,3.7342,3.086317,0.1817789,0.48972258,225.9021,01/12.0/2025,2000,g 16.5,4.0
# From MPEC 2016-ED0
332P-D/Ikeya-Murakami,e,9.3761,3.7923,152.4393,3.081138,0.1822373,0.48977814,359.9486,03/17.0/2016,2000,g 19.0,4.0
# From MPEC 2016-ED0
332P-E/Ikeya-Murakami,e,9.3774,3.8228,152.2825,3.079877,0.1823493,0.48922008,359.9889,03/17.0/2016,2000,g 21.0,4.0
# From MPEC 2016-ED0
332P-F/Ikeya-Murakami,e,9.5293,3.4757,152.8203,3.163214,0.1751908,0.49918860,359.8501,03/17.0/2016,2000,g 21.0,4.0
# From MPEC 2016-ED0
332P-G/Ikeya-Murakami,e,9.2523,3.6955,154.4000,3.050519,0.1849880,0.49200362,359.9006,03/19.0/2016,2000,g 19.0,4.0
# From MPC100285
332P-H/Ikeya-Murakami,e,9.3845,152.3043,3.7339,3.086498,0.1817629,0.48975840,225.8169,01/12.0/2025,2000,g 19.0,4.0
# From MPEC 2016-ED0
332P-I/Ikeya-Murakami,e,9.3791,3.8048,152.3297,3.081767,0.1821815,0.48955490,359.9360,03/17.0/2016,2000,g 20.5,2.0
# From MPEC 2016-EI8
332P-J/Ikeya-Murakami,e,9.4296,3.6729,152.7712,3.115165,0.1792596,0.49429435,359.8613,03/17.0/2016,2000,g 20.5,2.0
# From MPEC 2025-AE4
333P/LINEAR,e,132.0224,115.7062,26.0171,4.220469,0.1136745,0.73629896,4.9678,01/12.0/2025,2000,g 15.0,4.0
# From MPEC 2023-J29
334P/NEAT,e,20.3679,90.4085,90.0420,6.826181,0.0552634,0.35164802,153.5967,01/12.0/2025,2000,g 10.5,4.0
# From MPEC 2023-M14
335P/Gibbs,e,7.2965,330.7982,162.3100,3.577326,0.1456687,0.54676474,128.7213,01/12.0/2025,2000,g 16.8,4.0
# From MPC105244
336P/McNaught,e,17.8437,298.1919,308.6258,5.037429,0.0871748,0.44492254,253.6373,01/12.0/2025,2000,g 13.5,4.0
# From MPEC 2024-A43
337P/WISE,e,16.3183,103.0598,164.6955,3.309069,0.1637365,0.49658022,151.0019,01/12.0/2025,2000,g 17.0,4.0
# From MPEC 2025-AE4
338P/McNaught,e,25.3805,9.7836,4.6099,3.895143,0.1282091,0.41262460,20.7290,01/12.0/2025,2000,g 12.0,4.0
# From MPC101101
339P/Gibbs,e,5.7337,27.4660,172.6774,3.698899,0.1385464,0.63569460,69.2831,01/12.0/2025,2000,g 17.0,4.0
# From MPC133426
340P/Boattini,e,2.0789,291.6595,36.0723,4.247583,0.1125878,0.28009476,334.1855,01/12.0/2025,2000,g 14.3,4.0
# From MPEC 2023-J29
341P/Gibbs,e,3.7964,29.9554,312.3585,4.285772,0.1110863,0.41517656,348.8132,01/12.0/2025,2000,g 12.5,4.0
# From MPC101101
342P/SOHO,e,11.6952,73.3231,27.6351,3.040960,0.1858609,0.98297292,0.0000,02/07.6236/2027,2000,g  9.0,4.0
# From MPEC 2024-PC5
343P/NEAT-LONEOS,e,5.5979,257.0533,137.6082,5.457559,0.0773048,0.58502655,224.1650,01/12.0/2025,2000,g 14.0,4.0
# From MPEC 2023-J29
344P/Read,e,3.4996,273.1015,140.6059,4.855788,0.0921116,0.42380758,274.9177,01/12.0/2025,2000,g 13.0,4.0
# From MPEC 2024-TP3
345P/LINEAR,e,2.7281,154.5117,196.7020,4.031429,0.1217631,0.22125233,16.3483,01/12.0/2025,2000,g 12.0,4.0
# From MPEC 2022-K19
346P/Catalina,e,22.2196,102.4585,336.0547,4.468891,0.1043289,0.50393520,300.9290,01/12.0/2025,2000,g 14.0,4.0
# From MPEC 2024-RQ6
347P/PANSTARRS,e,11.7660,260.9917,98.1700,3.601918,0.1441795,0.38685493,78.2299,01/12.0/2025,2000,g 15.0,4.0
# From MPEC 2022-ED3
348P/PANSTARRS,e,17.7411,312.9163,135.7547,3.151685,0.1761529,0.30749944,187.3716,01/12.0/2025,2000,g 14.0,4.0
# From MPEC 2024-LE0
349P/Lemmon,e,5.4888,331.7413,255.7670,3.578228,0.1456137,0.29855939,33.4909,01/12.0/2025,2000,g 14.0,4.0
# From MPC111775
350P/McNaught,e,7.3638,65.2918,140.0507,4.081182,0.1195433,0.09463291,308.6639,01/12.0/2025,2000,g 14.0,4.0
# From MPC105244
351P/Wiegert-PANSTARRS,e,12.7745,352.6703,283.2983,4.440507,0.1053308,0.29469497,352.2800,01/12.0/2025,2000,g 12.5,4.0
# From MPEC 2023-J29
352P/Skiff,e,21.0078,28.0337,309.3931,6.654568,0.0574149,0.61625160,158.6511,01/12.0/2025,2000,g 13.2,4.0
# From MPEC 2020-AA5
353P/McNaught,e,28.4181,121.5133,230.4955,4.170645,0.1157176,0.46979355,298.0387,01/12.0/2025,2000,g 14.5,4.0
# From MPEC 2024-EF7
354P/LINEAR,e,5.2506,320.0631,132.8926,2.290181,0.2843802,0.12449329,129.6348,01/12.0/2025,2000,g 15.5,4.0
# From MPEC 2023-CD7
355P/LINEAR-NEAT,e,11.0460,51.4276,336.2807,3.468249,0.1525944,0.50804128,43.5949,01/12.0/2025,2000,g 15.5,2.0
# From MPEC 2022-F14
356P/WISE,e,9.6411,160.7965,226.1974,4.153007,0.1164555,0.35596866,299.8811,01/12.0/2025,2000,g 14.0,4.0
# From MPC114609
357P/Hill,e,6.3134,44.5744,1.4899,4.455248,0.1048084,0.43610881,253.0470,01/12.0/2025,2000,g 15.5,4.0
# From MPEC 2024-EF7
358P/PANSTARRS,e,11.0667,85.6669,299.3968,3.146559,0.1765836,0.23952130,75.7983,01/12.0/2025,2000,g 18.0,4.0
# From MPC110086
359P/LONEOS,e,10.2622,149.7543,200.2991,4.641875,0.0985517,0.32326631,265.9439,01/12.0/2025,2000,g 13.5,4.0
# From MPEC 2025-A40
360P/WISE,e,24.1086,2.1765,354.2918,3.697471,0.1386267,0.49919831,13.8931,01/12.0/2025,2000,g 19.5,6.0
# From MPEC 2023-CD7
361P/Spacewatch,e,13.8995,203.2410,219.1070,4.933015,0.0899571,0.43961344,214.1577,01/12.0/2025,2000,g 12.0,4.0
# From MPC114609
363P/Lemmon,e,5.3900,146.6324,340.8779,3.574327,0.1458521,0.51854904,8.7218,01/12.0/2025,2000,g 17.5,4.0
# From MPEC 2024-M41
364P/PANSTARRS,e,11.9716,45.9919,212.6013,2.897790,0.1998037,0.71927169,121.7341,01/12.0/2025,2000,g 17.0,2.0
# From MPC111775
365P/PANSTARRS,e,9.8502,86.6574,67.4144,3.156280,0.1757684,0.58156113,80.9509,01/12.0/2025,2000,g 17.0,4.0
# From MPC114610
366P/Spacewatch,e,8.8570,70.7228,152.9987,3.499752,0.1505387,0.34852859,357.1549,01/12.0/2025,2000,g 15.0,4.0
# From MPC112395
367P/Catalina,e,8.4595,58.6616,172.6905,3.511246,0.1498001,0.28003540,0.0669,01/12.0/2025,2000,g 17.5,2.0
# From MPC114610
368P/NEAT,e,15.4829,257.8533,118.9866,5.534184,0.0757048,0.62592120,174.8992,01/12.0/2025,2000,g 14.0,4.0
# From MPC114610
369P/Hill,e,10.3210,47.2916,13.2243,4.378930,0.1075603,0.55596231,244.8267,01/12.0/2025,2000,g 15.0,4.0
# From MPEC 2021-F20
370P/NEAT,e,19.4215,55.0833,356.7734,6.439074,0.0603211,0.61535565,145.0835,01/12.0/2025,2000,g 13.0,4.0
# From MPC114610
371P/LINEAR-Skiff,e,17.3852,67.2829,308.5734,4.180389,0.1153132,0.47671388,263.8456,01/12.0/2025,2000,g 16.0,4.0
# From MPEC 2020-K19
372P/McNaught,e,9.5053,27.5516,326.0032,4.512031,0.1028362,0.15141144,233.6931,01/12.0/2025,2000,g 13.5,4.0
# From MPEC 2021-F20
373P/Rinner,e,13.7702,231.9378,221.1081,3.797576,0.1331816,0.39379055,279.9707,01/12.0/2025,2000,g 14.5,4.0
# From MPC114610
374P/Larson,e,10.7620,7.8804,51.5606,4.971033,0.0889271,0.46374850,194.7075,01/12.0/2025,2000,g 14.0,4.0
# From MPEC 2021-F20
375P/Hill,e,17.3713,359.8536,119.4249,5.545807,0.0754670,0.66013690,166.9207,01/12.0/2025,2000,g 16.0,4.0
# From MPEC 2024-RQ6
376P/LONEOS,e,1.1662,312.8528,285.3752,5.756134,0.0713687,0.51370985,138.9778,01/12.0/2025,2000,g 12.5,4.0
# From MPEC 2022-N37
377P/Scotti,e,9.0277,225.9800,354.8629,6.695445,0.0568899,0.25125231,93.7414,01/12.0/2025,2000,g  9.5,4.0
# From MPEC 2025-A40
378P/McNaught,e,19.1571,93.7948,193.3422,6.288532,0.0625000,0.46396332,97.3077,01/12.0/2025,2000,g 12.0,4.0
# From MPC115889
379P/Spacewatch,e,12.4364,30.4641,184.6036,3.484924,0.1515005,0.35020975,298.3957,01/12.0/2025,2000,g 15.0,4.0
# From MPEC 2023-C45
380P/PANSTARRS,e,8.0273,127.8098,87.8279,4.437284,0.1054455,0.33492947,222.4333,01/12.0/2025,2000,g 12.5,4.0
# From MPEC 2021-J28
381P/LINEAR-Spacewatch,e,28.3459,173.3109,173.8546,7.144920,0.0516069,0.68075248,99.8750,01/12.0/2025,2000,g 17.5,2.0
# From MPEC 2025-A40
382P/Larson,e,8.2598,170.8228,162.2068,5.904181,0.0687012,0.26746633,79.9178,01/12.0/2025,2000,g  8.0,4.0
# From MPEC 2022-OB6
383P/Christensen,e,12.3185,207.8545,133.7380,3.548563,0.1474434,0.59856283,280.8881,01/12.0/2025,2000,g 18.0,4.0
# From MPEC 2025-AE4
384P/Kowalski,e,7.2834,354.1917,37.7138,2.898304,0.1997507,0.61631650,22.9438,01/12.0/2025,2000,g 19.5,4.0
# From MPEC 2021-F20
385P/Hill,e,16.8239,357.0462,44.4477,4.288854,0.1109666,0.40199979,215.6816,01/12.0/2025,2000,g 13.0,4.0
# From MPEC 2021-L04
386P/PANSTARRS,e,15.2452,134.9155,353.0909,4.049476,0.1209500,0.41739215,194.2083,01/12.0/2025,2000,g 14.5,4.0
# From MPEC 2021-J28
387P/Boattini,e,8.9384,259.2380,162.8471,4.797244,0.0938029,0.73708363,183.1230,01/12.0/2025,2000,g 15.0,4.0
# From MPEC 2021-S45
388P/Gibbs,e,23.8834,37.0197,42.3496,5.240570,0.0821554,0.61940008,164.0248,01/12.0/2025,2000,g 13.0,4.0
# From MPEC 2022-OB6
389P/Siding Spring,e,160.0824,218.8654,249.3493,5.631017,0.0737605,0.70551662,135.6252,01/12.0/2025,2000,g 16.0,4.0
# From MPEC 2024-EF7
